OBJECT_NAME,OBJECT_ID,EPOCH,MEAN_MOTION,ECCENTRICITY,INCLINATION,RA_OF_ASC_NODE,ARG_OF_PERICENTER,MEAN_ANOMALY,EPHEMERIS_TYPE,CLASSIFICATION_TYPE,NORAD_CAT_ID,ELEMENT_SET_NO,REV_AT_EPOCH,BSTAR,MEAN_MOTION_DOT,MEAN_MOTION_DDOT
CORVUS BC4,2018-099K,2026-05-11T01:40:24.348000,15.12188428,.0009801,97.4100,175.1397,124.1393,236.0769,0,U,43767,999,40679,.18852E-3,.3194E-4,0
M2 PATHFINDER,2020-037E,2026-05-11T01:40:55.058880,15.04512328,.0010264,97.8165,321.8867,279.5910,80.4156,0,U,45727,999,31991,.14174E-3,.1923E-4,0
NETSAT-4,2020-068U,2026-05-10T23:17:11.194944,15.42625554,.0007676,97.8622,136.2590,95.7554,264.4567,0,U,46504,999,31003,.26909E-3,.1163E-3,0
NETSAT-3,2020-068V,2026-05-10T22:44:08.721024,15.41395029,.0007508,97.8671,134.4998,108.3847,251.8215,0,U,46505,999,30994,.2884E-3,.11969E-3,0
NETSAT-1,2020-068W,2026-05-11T05:14:52.186848,15.33735752,.0006688,97.8754,129.5486,126.5796,233.6061,0,U,46506,999,30963,.2571E-3,.8306E-4,0
NETSAT-2,2020-068X,2026-05-10T23:49:08.031648,15.44418560,.0006144,97.8637,136.0527,116.0068,244.1813,0,U,46507,999,30999,.31098E-3,.14295E-3,0
GREENCUBE (IO-117),2022-080E,2026-05-10T19:57:26.841024,6.42583328,.000888,70.1441,311.2423,298.2511,61.7252,0,U,53109,999,8966,0,-.3E-7,0
SITRO-AIS 5 (KATYS),2023-091L,2026-05-11T03:49:14.759040,15.28600652,.0010577,97.5081,194.7281,226.6994,133.3364,0,U,57176,999,15868,.26555E-3,.7322E-4,0
SITRO-AIS 6 (CHIRKIN),2023-091AC,2026-05-11T04:27:39.438432,15.25237761,.0010727,97.5089,194.0655,230.3399,129.6893,0,U,57192,999,15864,.15056E-3,.3714E-4,0
SITRO-AIS 8 (ANOKHIN),2023-091AD,2026-05-11T04:10:04.594656,15.31131500,.000989,97.5076,196.1856,221.7581,138.2906,0,U,57193,999,15878,.28672E-3,.8556E-4,0
SITRO-AIS 7 (FARTUSHNIY),2023-091AE,2026-05-11T04:21:36.600768,15.24943891,.0010559,97.5087,193.9047,231.6198,128.4091,0,U,57194,999,15863,.14057E-3,.3432E-4,0
SITRO-AIS 10 (BURDAEV),2023-091AK,2026-05-11T03:51:23.152032,15.37211615,.0006866,97.5097,200.8576,192.2528,167.8550,0,U,57199,999,15907,.3413E-3,.12368E-3,0
SITRO-AIS 9 (SHCHUKIN),2023-091AM,2026-05-11T04:13:13.642176,15.36757954,.0007076,97.5095,200.6310,192.9848,167.1214,0,U,57201,999,15906,.3311E-3,.11821E-3,0
SITRO-AIS 12 (SMIRENNIY),2023-091AQ,2026-05-11T04:09:40.146912,15.37041952,.0006893,97.5107,201.0727,186.8701,173.2450,0,U,57204,999,15908,.33413E-3,.1204E-3,0
SITRO-AIS 11 (SHEFFER),2023-091AU,2026-05-11T04:43:06.038688,15.37433355,.0006835,97.5105,201.3206,186.5226,173.5930,0,U,57208,999,15910,.32807E-3,.1197E-3,0
SITRO-AIS 25,2024-039R,2026-05-11T04:31:31.766304,14.93250700,.0147544,95.3920,209.6722,97.4148,264.3870,0,U,59066,999,11920,.24034E-3,.3082E-4,0
SITRO-AIS 28,2024-039U,2026-05-11T05:03:31.487040,14.93497863,.0146764,95.3924,209.8926,96.4649,265.3310,0,U,59071,999,11922,.25611E-3,.3301E-4,0
GRBBETA,2024-128C,2026-05-10T22:00:40.450176,15.06330418,.0045504,61.9910,346.9978,126.9629,233.5644,0,U,60237,999,10065,.18156E-3,.2522E-4,0
OOV-CUBE (TUBSAT-30),2024-128F,2026-05-11T01:22:33.744000,15.02582445,.0049117,61.9952,355.0249,125.6590,234.9089,0,U,60240,999,10053,.1268E-3,.1521E-4,0
ROBUSTA-3A (MEDITERRANEE),2024-128J,2026-05-11T03:37:51.570048,15.11089418,.0046325,61.9875,339.1574,120.7932,239.7735,0,U,60243,999,10082,.29043E-3,.4784E-4,0
LASARSAT,2024-247Q,2026-05-10T23:54:34.628832,15.44077478,.0004563,44.9738,110.8157,104.5568,255.5827,0,U,62391,999,7756,.46691E-3,.21523E-3,0
CROCUBE,2024-247T,2026-05-11T05:30:19.245024,15.45665356,.0004262,44.9713,107.3919,107.0908,253.0449,0,U,62394,999,7762,.47539E-3,.23159E-3,0
FORESAIL-1 PRIME,2025-276DS,2026-05-11T03:51:33.914016,15.18357545,.0001627,97.4207,205.1173,194.9877,165.1309,0,U,66778,999,2478,.16033E-3,.3226E-4,0
KNACKSAT-2,1998-067XZ,2026-05-11T03:41:53.978208,15.56776658,.0012608,51.6281,120.2725,61.6793,298.5469,0,U,67683,999,1450,.37957E-3,.27389E-3,0
