CORVUS BC4              
1 43767U 18099K   26131.06972625  .00003194  00000+0  18852-3 0  9997
2 43767  97.4100 175.1397 0009801 124.1393 236.0769 15.12188428406793
M2 PATHFINDER           
1 45727U 20037E   26131.07008170  .00001923  00000+0  14174-3 0  9997
2 45727  97.8165 321.8867 0010264 279.5910  80.4156 15.04512328319912
NETSAT-4                
1 46504U 20068U   26130.97026847  .00011630  00000+0  26909-3 0  9999
2 46504  97.8622 136.2590 0007675  95.7554 264.4567 15.42625554310031
NETSAT-3                
1 46505U 20068V   26130.94732316  .00011969  00000+0  28840-3 0  9993
2 46505  97.8671 134.4998 0007508 108.3847 251.8215 15.41395029309947
NETSAT-1                
1 46506U 20068W   26131.21865957  .00008306  00000+0  25710-3 0  9997
2 46506  97.8754 129.5486 0006688 126.5796 233.6061 15.33735752309635
NETSAT-2                
1 46507U 20068X   26130.99245407  .00014295  00000+0  31098-3 0  9994
2 46507  97.8637 136.0527 0006144 116.0068 244.1813 15.44418560309996
GREENCUBE (IO-117)      
1 53109U 22080E   26130.83156067 -.00000003  00000+0  00000+0 0  9990
2 53109  70.1441 311.2423 0008880 298.2511  61.7252  6.42583328 89668
SITRO-AIS 5 (KATYS)     
1 57176U 23091L   26131.15919861  .00007322  00000+0  26555-3 0  9993
2 57176  97.5081 194.7281 0010576 226.6994 133.3364 15.28600652158683
SITRO-AIS 6 (CHIRKIN)   
1 57192U 23091AC  26131.18587313  .00003714  00000+0  15056-3 0  9992
2 57192  97.5089 194.0655 0010727 230.3399 129.6893 15.25237761158641
SITRO-AIS 8 (ANOKHIN)   
1 57193U 23091AD  26131.17366429  .00008556  00000+0  28672-3 0  9992
2 57193  97.5076 196.1856 0009890 221.7581 138.2906 15.31131500158787
SITRO-AIS 7 (FARTUSHNIY)
1 57194U 23091AE  26131.18167362  .00003432  00000+0  14057-3 0  9999
2 57194  97.5087 193.9047 0010559 231.6198 128.4091 15.24943891158631
SITRO-AIS 10 (BURDAEV)  
1 57199U 23091AK  26131.16068463  .00012368  00000+0  34130-3 0  9996
2 57199  97.5097 200.8576 0006866 192.2528 167.8550 15.37211615159079
SITRO-AIS 9 (SHCHUKIN)  
1 57201U 23091AM  26131.17585234  .00011821  00000+0  33110-3 0  9991
2 57201  97.5095 200.6310 0007076 192.9848 167.1214 15.36757954159060
SITRO-AIS 12 (SMIRENNIY)
1 57204U 23091AQ  26131.17338133  .00012040  00000+0  33413-3 0  9998
2 57204  97.5107 201.0727 0006893 186.8701 173.2450 15.37041952159087
SITRO-AIS 11 (SHEFFER)  
1 57208U 23091AU  26131.19659767  .00011970  00000+0  32807-3 0  9990
2 57208  97.5105 201.3206 0006835 186.5226 173.5930 15.37433355159100
SITRO-AIS 25            
1 59066U 24039R   26131.18856211  .00003082  00000+0  24034-3 0  9997
2 59066  95.3920 209.6722 0147544  97.4148 264.3870 14.93250700119206
SITRO-AIS 28            
1 59071U 24039U   26131.21078110  .00003301  00000+0  25611-3 0  9997
2 59071  95.3924 209.8926 0146764  96.4649 265.3310 14.93497863119227
GRBBETA                 
1 60237U 24128C   26130.91713484  .00002522  00000+0  18156-3 0  9998
2 60237  61.9910 346.9978 0045504 126.9629 233.5644 15.06330418100655
OOV-CUBE (TUBSAT-30)    
1 60240U 24128F   26131.05733500  .00001521  00000+0  12680-3 0  9993
2 60240  61.9952 355.0249 0049117 125.6590 234.9089 15.02582445100534
ROBUSTA-3A (MEDITERRAN*)
1 60243U 24128J   26131.15129132  .00004784  00000+0  29043-3 0  9992
2 60243  61.9875 339.1574 0046325 120.7932 239.7735 15.11089418100824
LASARSAT                
1 62391U 24247Q   26130.99623413  .00021523  00000+0  46691-3 0  9990
2 62391  44.9738 110.8157 0004563 104.5568 255.5827 15.44077478 77564
CROCUBE                 
1 62394U 24247T   26131.22938941  .00023159  00000+0  47539-3 0  9994
2 62394  44.9713 107.3919 0004262 107.0908 253.0449 15.45665356 77628
FORESAIL-1 PRIME        
1 66778U 25276DS  26131.16080920  .00003226  00000+0  16033-3 0  9993
2 66778  97.4207 205.1173 0001627 194.9877 165.1309 15.18357545 24785
KNACKSAT-2              
1 67683U 98067XZ  26131.15409697  .00027389  00000+0  37957-3 0  9996
2 67683  51.6281 120.2725 0012608  61.6793 298.5469 15.56776658 14502
